start=new Date('2023-04-13T00:00:00.000Z').valueOf();
sats=[{"OBJECT_NAME":"STARLINK-2347","OBJECT_ID":"2021-018J","NORAD_CAT_ID":"47795","MEAN_MOTION":"15.06382023","RCS_SIZE":"LARGE","CLASSIFICATION_TYPE":"U","EPHEMERIS_TYPE":"0","COUNTRY_CODE":"US","PERIAPSIS":"547.052","FILE":"3886435","CENTER_NAME":"EARTH","REF_FRAME":"TEME","PERIOD":"95.593","RA_OF_ASC_NODE":"319.3937","SITE":"AFETR","SEMIMAJOR_AXIS":"6925.404","GP_ID":"229987729","TLE_LINE2":"2 47795  53.0547 319.3937 0000313 345.2007  14.8973 15.06382023116450","BSTAR":"0.00045774000000","ELEMENT_SET_NO":"999","OBJECT_TYPE":"PAYLOAD","MEAN_ELEMENT_THEORY":"SGP4","INCLINATION":"53.0547","MEAN_ANOMALY":"14.8973","LAUNCH_DATE":"2021-03-11","ARG_OF_PERICENTER":"345.2007","TLE_LINE1":"1 47795U 21018J   23102.62872963  .00006540  00000-0  45774-3 0  9990","APOAPSIS":"547.485","MEAN_MOTION_DOT":"0.00006540","TIME_SYSTEM":"UTC","EPOCH":"2023-04-12T15:05:22.240032","REV_AT_EPOCH":"11645","DECAY_DATE":null,"MEAN_MOTION_DDOT":"0.0000000000000","ECCENTRICITY":"0.00003130"},{"SITE":"AFETR","SEMIMAJOR_AXIS":"6925.337","CENTER_NAME":"EARTH","RA_OF_ASC_NODE":"319.6256","PERIOD":"95.592","REF_FRAME":"TEME","GP_ID":"229986356","COUNTRY_CODE":"US","EPHEMERIS_TYPE":"0","FILE":"3886383","PERIAPSIS":"546.102","MEAN_MOTION":"15.06403749","RCS_SIZE":"LARGE","CLASSIFICATION_TYPE":"U","OBJECT_ID":"2021-018K","OBJECT_NAME":"STARLINK-2373","NORAD_CAT_ID":"47796","DECAY_DATE":null,"EPOCH":"2023-04-12T13:51:04.082112","REV_AT_EPOCH":"11644","MEAN_MOTION_DDOT":"0.0000000000000","ECCENTRICITY":"0.00015890","TLE_LINE1":"1 47796U 21018K   23102.57713058  .00000364  00000-0  43357-4 0  9998","LAUNCH_DATE":"2021-03-11","ARG_OF_PERICENTER":"84.6621","TIME_SYSTEM":"UTC","MEAN_MOTION_DOT":"0.00000364","APOAPSIS":"548.303","INCLINATION":"53.0529","MEAN_ANOMALY":"275.4550","TLE_LINE2":"2 47796  53.0529 319.6256 0001589  84.6621 275.4550 15.06403749116444","BSTAR":"0.00004335700000","OBJECT_TYPE":"PAYLOAD","MEAN_ELEMENT_THEORY":"SGP4","ELEMENT_SET_NO":"999"},{"GP_ID":"229987262","REF_FRAME":"TEME","PERIOD":"95.591","RA_OF_ASC_NODE":"344.1654","CENTER_NAME":"EARTH","SEMIMAJOR_AXIS":"6925.304","SITE":"AFETR","PERIAPSIS":"546.111","FILE":"3886421","EPHEMERIS_TYPE":"0","COUNTRY_CODE":"US","CLASSIFICATION_TYPE":"U","RCS_SIZE":"LARGE","MEAN_MOTION":"15.06414676","NORAD_CAT_ID":"47797","OBJECT_NAME":"STARLINK-2377","OBJECT_ID":"2021-018L","ECCENTRICITY":"0.00015270","MEAN_MOTION_DDOT":"0.0000000000000","REV_AT_EPOCH":"11611","EPOCH":"2023-04-12T16:19:00.626304","DECAY_DATE":null,"MEAN_MOTION_DOT":"0.00014426","APOAPSIS":"548.226","TIME_SYSTEM":"UTC","ARG_OF_PERICENTER":"63.2926","LAUNCH_DATE":"2021-03-11","TLE_LINE1":"1 47797U 21018L   23102.67986836  .00014426  00000-0  98496-3 0  9993","MEAN_ANOMALY":"296.8219","INCLINATION":"53.0544","ELEMENT_SET_NO":"999","MEAN_ELEMENT_THEORY":"SGP4","OBJECT_TYPE":"PAYLOAD","BSTAR":"0.00098496000000","TLE_LINE2":"2 47797  53.0544 344.1654 0001527  63.2926 296.8219 15.06414676116114"},{"EPHEMERIS_TYPE":"0","COUNTRY_CODE":"US","FILE":"3886421","PERIAPSIS":"546.194","PERIOD":"95.592","REF_FRAME":"TEME","RA_OF_ASC_NODE":"319.5768","CENTER_NAME":"EARTH","SEMIMAJOR_AXIS":"6925.359","SITE":"AFETR","GP_ID":"229987752","OBJECT_NAME":"STARLINK-2379","OBJECT_ID":"2021-018M","NORAD_CAT_ID":"47798","MEAN_MOTION":"15.06396504","RCS_SIZE":"LARGE","CLASSIFICATION_TYPE":"U","ARG_OF_PERICENTER":"97.0805","LAUNCH_DATE":"2021-03-11","TLE_LINE1":"1 47798U 21018M   23102.58818538  .00009129  00000-0  63102-3 0  9997","APOAPSIS":"548.254","MEAN_MOTION_DOT":"0.00009129","TIME_SYSTEM":"UTC","REV_AT_EPOCH":"11644","EPOCH":"2023-04-12T14:06:59.216832","DECAY_DATE":null,"MEAN_MOTION_DDOT":"0.0000000000000","ECCENTRICITY":"0.00014870","BSTAR":"0.00063102000000","TLE_LINE2":"2 47798  53.0546 319.5768 0001487  97.0805 263.0353 15.06396504116445","ELEMENT_SET_NO":"999","MEAN_ELEMENT_THEORY":"SGP4","OBJECT_TYPE":"PAYLOAD","INCLINATION":"53.0546","MEAN_ANOMALY":"263.0353"},{"MEAN_MOTION":"15.06452034","RCS_SIZE":"LARGE","CLASSIFICATION_TYPE":"U","OBJECT_NAME":"STARLINK-2380","OBJECT_ID":"2021-018N","NORAD_CAT_ID":"47799","CENTER_NAME":"EARTH","PERIOD":"95.589","RA_OF_ASC_NODE":"321.9774","REF_FRAME":"TEME","SITE":"AFETR","SEMIMAJOR_AXIS":"6925.189","GP_ID":"229980598","EPHEMERIS_TYPE":"0","COUNTRY_CODE":"US","FILE":"3886349","PERIAPSIS":"546.474","INCLINATION":"53.0537","MEAN_ANOMALY":"258.8695","TLE_LINE2":"2 47799  53.0537 321.9774 0000838 101.2388 258.8695 15.06452034116704","BSTAR":"0.00144280000000","ELEMENT_SET_NO":"999","OBJECT_TYPE":"PAYLOAD","MEAN_ELEMENT_THEORY":"SGP4","EPOCH":"2023-04-12T01:17:20.779872","REV_AT_EPOCH":"11670","DECAY_DATE":null,"MEAN_MOTION_DDOT":"0.0000000000000","ECCENTRICITY":"0.00008380","LAUNCH_DATE":"2021-03-11","ARG_OF_PERICENTER":"101.2388","TLE_LINE1":"1 47799U 21018N   23102.05371273  .00021304  00000-0  14428-2 0  9995","APOAPSIS":"547.634","MEAN_MOTION_DOT":"0.00021304","TIME_SYSTEM":"UTC"},{"NORAD_CAT_ID":"47800","OBJECT_ID":"2021-018P","OBJECT_NAME":"STARLINK-2381","CLASSIFICATION_TYPE":"U","RCS_SIZE":"LARGE","MEAN_MOTION":"15.06411806","PERIAPSIS":"546.470","FILE":"3886423","COUNTRY_CODE":"US","EPHEMERIS_TYPE":"0","GP_ID":"229987283","SITE":"AFETR","SEMIMAJOR_AXIS":"6925.312","CENTER_NAME":"EARTH","PERIOD":"95.591","RA_OF_ASC_NODE":"319.4942","REF_FRAME":"TEME","OBJECT_TYPE":"PAYLOAD","MEAN_ELEMENT_THEORY":"SGP4","ELEMENT_SET_NO":"999","TLE_LINE2":"2 47800  53.0544 319.4942 0001021  84.7792 275.3314 15.06411806116459","BSTAR":"0.00034308000000","MEAN_ANOMALY":"275.3314","INCLINATION":"53.0544","TIME_SYSTEM":"UTC","APOAPSIS":"547.884","MEAN_MOTION_DOT":"0.00004834","TLE_LINE1":"1 47800U 21018P   23102.60661309  .00004834  00000-0  34308-3 0  9990","LAUNCH_DATE":"2021-03-11","ARG_OF_PERICENTER":"84.7792","MEAN_MOTION_DDOT":"0.0000000000000","ECCENTRICITY":"0.00010210","DECAY_DATE":null,"EPOCH":"2023-04-12T14:33:31.370976","REV_AT_EPOCH":"11645"},{"PERIAPSIS":"546.382","FILE":"3886466","EPHEMERIS_TYPE":"0","COUNTRY_CODE":"US","GP_ID":"229988461","CENTER_NAME":"EARTH","REF_FRAME":"TEME","PERIOD":"95.592","RA_OF_ASC_NODE":"324.4198","SITE":"AFETR","SEMIMAJOR_AXIS":"6925.358","NORAD_CAT_ID":"47801","OBJECT_NAME":"STARLINK-2382","OBJECT_ID":"2021-018Q","RCS_SIZE":"LARGE","CLASSIFICATION_TYPE":"U","MEAN_MOTION":"15.06396766","APOAPSIS":"548.065","MEAN_MOTION_DOT":"-0.00005028","TIME_SYSTEM":"UTC","LAUNCH_DATE":"2021-03-11","ARG_OF_PERICENTER":"99.8798","TLE_LINE1":"1 47801U 21018Q   23102.64117534 -.00005028  00000-0 -31891-3 0  9993","ECCENTRICITY":"0.00012150","MEAN_MOTION_DDOT":"0.0000000000000","EPOCH":"2023-04-12T15:23:17.549376","REV_AT_EPOCH":"11638","DECAY_DATE":null,"ELEMENT_SET_NO":"999","OBJECT_TYPE":"PAYLOAD","MEAN_ELEMENT_THEORY":"SGP4","TLE_LINE2":"2 47801  53.0572 324.4198 0001215  99.8798 260.2328 15.06396766116385","BSTAR":"-0.00031891000000","MEAN_ANOMALY":"260.2328","INCLINATION":"53.0572"},{"INCLINATION":"53.0547","MEAN_ANOMALY":"286.6575","TLE_LINE2":"2 47802  53.0547 346.8121 0001038  73.4528 286.6575 15.06455159116023","BSTAR":"0.00199150000000","OBJECT_TYPE":"PAYLOAD","MEAN_ELEMENT_THEORY":"SGP4","ELEMENT_SET_NO":"999","DECAY_DATE":null,"EPOCH":"2023-04-12T02:09:45.918720","REV_AT_EPOCH":"11602","MEAN_MOTION_DDOT":"0.0000000000000","ECCENTRICITY":"0.00010380","TLE_LINE1":"1 47802U 21018R   23102.09011480  .00029551  00000-0  19915-2 0  9993","LAUNCH_DATE":"2021-03-11","ARG_OF_PERICENTER":"73.4528","TIME_SYSTEM":"UTC","MEAN_MOTION_DOT":"0.00029551","APOAPSIS":"547.763","MEAN_MOTION":"15.06455159","RCS_SIZE":"LARGE","CLASSIFICATION_TYPE":"U","OBJECT_ID":"2021-018R","OBJECT_NAME":"STARLINK-2383","NORAD_CAT_ID":"47802","SITE":"AFETR","SEMIMAJOR_AXIS":"6925.180","CENTER_NAME":"EARTH","REF_FRAME":"TEME","PERIOD":"95.589","RA_OF_ASC_NODE":"346.8121","GP_ID":"229987291","COUNTRY_CODE":"US","EPHEMERIS_TYPE":"0","FILE":"3886444","PERIAPSIS":"546.326"},{"MEAN_MOTION":"15.06394021","RCS_SIZE":"LARGE","CLASSIFICATION_TYPE":"U","OBJECT_NAME":"STARLINK-2384","OBJECT_ID":"2021-018S","NORAD_CAT_ID":"47803","PERIOD":"95.593","REF_FRAME":"TEME","RA_OF_ASC_NODE":"318.2503","CENTER_NAME":"EARTH","SEMIMAJOR_AXIS":"6925.367","SITE":"AFETR","GP_ID":"229989128","EPHEMERIS_TYPE":"0","COUNTRY_CODE":"US","FILE":"3886486","PERIAPSIS":"545.342","INCLINATION":"53.0518","MEAN_ANOMALY":"258.9399","BSTAR":"0.00087214000000","TLE_LINE2":"2 47803  53.0518 318.2503 0002729 101.1896 258.9399 15.06394021116491","ELEMENT_SET_NO":"999","MEAN_ELEMENT_THEORY":"SGP4","OBJECT_TYPE":"PAYLOAD","REV_AT_EPOCH":"11649","EPOCH":"2023-04-12T21:11:36.757248","DECAY_DATE":null,"MEAN_MOTION_DDOT":"0.0000000000000","ECCENTRICITY":"0.00027290","ARG_OF_PERICENTER":"101.1896","LAUNCH_DATE":"2021-03-11","TLE_LINE1":"1 47803U 21018S   23102.88306432  .00012731  00000-0  87214-3 0  9995","MEAN_MOTION_DOT":"0.00012731","APOAPSIS":"549.122","TIME_SYSTEM":"UTC"},{"DECAY_DATE":null,"EPOCH":"2023-04-12T00:50:48.096096","REV_AT_EPOCH":"11670","ECCENTRICITY":"0.00012220","MEAN_MOTION_DDOT":"0.0000000000000","TLE_LINE1":"1 47804U 21018T   23102.03527889  .00017214  00000-0  11710-2 0  9992","LAUNCH_DATE":"2021-03-11","ARG_OF_PERICENTER":"105.0308","TIME_SYSTEM":"UTC","MEAN_MOTION_DOT":"0.00017214","APOAPSIS":"547.993","INCLINATION":"53.0551","MEAN_ANOMALY":"255.0816","TLE_LINE2":"2 47804  53.0551 322.0595 0001222 105.0308 255.0816 15.06421949116707","BSTAR":"0.00117100000000","OBJECT_TYPE":"PAYLOAD","MEAN_ELEMENT_THEORY":"SGP4","ELEMENT_SET_NO":"999","SITE":"AFETR","SEMIMAJOR_AXIS":"6925.281","CENTER_NAME":"EARTH","PERIOD":"95.591","REF_FRAME":"TEME","RA_OF_ASC_NODE":"322.0595","GP_ID":"229981347","COUNTRY_CODE":"US","EPHEMERIS_TYPE":"0","PERIAPSIS":"546.300","FILE":"3886349","MEAN_MOTION":"15.06421949","RCS_SIZE":"LARGE","CLASSIFICATION_TYPE":"U","OBJECT_ID":"2021-018T","OBJECT_NAME":"STARLINK-2385","NORAD_CAT_ID":"47804"}];
